{
  "type": "FeatureCollection",
  "features": [
    {
      "type": "Feature",
      "properties": {
        "norad_id": 33765,
        "name": "COSMOS 2251 DEB",
        "group": "cosmos-2251-debris",
        "lat": 56.09909474506475,
        "lon": 168.1205830582208,
        "alt_km": 572.417843668276,
        "timestamp": "2025-12-27T08:36:18.777087+00:00",
        "meta_object_name": "COSMOS 2251 DEB",
        "meta_object_id": "1993-036N",
        "meta_epoch": "2025-12-27T04:20:17.105856",
        "meta_mean_motion": 15.10775099,
        "meta_eccentricity": 0.0064613,
        "meta_inclination": 74.0099,
        "meta_ra_of_asc_node": 143.2286,
        "meta_arg_of_pericenter": 233.1419,
        "meta_mean_anomaly": 300.121,
        "meta_ephemeris_type": 0,
        "meta_classification_type": "U",
        "meta_norad_cat_id": 33765,
        "meta_element_set_no": 999,
        "meta_rev_at_epoch": 89836,
        "meta_bstar": 0.0018672,
        "meta_mean_motion_dot": 0.00032688,
        "meta_mean_motion_ddot": 0,
        "tle_line1": "1 33765U 93036N   25361.18075354  .00032688  00000+0  18672-2 0  9997",
        "tle_line2": "2 33765  74.0099 143.2286 0064613 233.1419 300.1210 15.10775099898369"
      },
      "geometry": {
        "type": "Point",
        "coordinates": [
          168.1205830582208,
          56.09909474506475
        ]
      }
    },
    {
      "type": "Feature",
      "properties": {
        "norad_id": 33766,
        "name": "COSMOS 2251 DEB",
        "group": "cosmos-2251-debris",
        "lat": -73.56052993753786,
        "lon": 2.2771713501121575,
        "alt_km": 747.6582957857172,
        "timestamp": "2025-12-27T08:36:18.777097+00:00",
        "meta_object_name": "COSMOS 2251 DEB",
        "meta_object_id": "1993-036P",
        "meta_epoch": "2025-12-27T00:40:27.014016",
        "meta_mean_motion": 14.34977898,
        "meta_eccentricity": 0.0064903,
        "meta_inclination": 74.1863,
        "meta_ra_of_asc_node": 109.0325,
        "meta_arg_of_pericenter": 308.5284,
        "meta_mean_anomaly": 51.0061,
        "meta_ephemeris_type": 0,
        "meta_classification_type": "U",
        "meta_norad_cat_id": 33766,
        "meta_element_set_no": 999,
        "meta_rev_at_epoch": 87950,
        "meta_bstar": 0.00064158,
        "meta_mean_motion_dot": 1.845e-05,
        "meta_mean_motion_ddot": 0,
        "tle_line1": "1 33766U 93036P   25361.02809044  .00001845  00000+0  64158-3 0  9994",
        "tle_line2": "2 33766  74.1863 109.0325 0064903 308.5284  51.0061 14.34977898879500"
      },
      "geometry": {
        "type": "Point",
        "coordinates": [
          2.2771713501121575,
          -73.56052993753786
        ]
      }
    },
    {
      "type": "Feature",
      "properties": {
        "norad_id": 33768,
        "name": "COSMOS 2251 DEB",
        "group": "cosmos-2251-debris",
        "lat": 43.39215451633081,
        "lon": 0.6063423415529797,
        "alt_km": 1252.4791558340294,
        "timestamp": "2025-12-27T08:36:18.777109+00:00",
        "meta_object_name": "COSMOS 2251 DEB",
        "meta_object_id": "1993-036R",
        "meta_epoch": "2025-12-27T01:28:15.901824",
        "meta_mean_motion": 13.58466971,
        "meta_eccentricity": 0.0366909,
        "meta_inclination": 74.0664,
        "meta_ra_of_asc_node": 196.7541,
        "meta_arg_of_pericenter": 351.3715,
        "meta_mean_anomaly": 127.2231,
        "meta_ephemeris_type": 0,
        "meta_classification_type": "U",
        "meta_norad_cat_id": 33768,
        "meta_element_set_no": 999,
        "meta_rev_at_epoch": 83490,
        "meta_bstar": 0.00038885,
        "meta_mean_motion_dot": 4.18e-06,
        "meta_mean_motion_ddot": 0,
        "tle_line1": "1 33768U 93036R   25361.06129516  .00000418  00000+0  38885-3 0  9992",
        "tle_line2": "2 33768  74.0664 196.7541 0366909 351.3715 127.2231 13.58466971834909"
      },
      "geometry": {
        "type": "Point",
        "coordinates": [
          0.6063423415529797,
          43.39215451633081
        ]
      }
    },
    {
      "type": "Feature",
      "properties": {
        "norad_id": 33779,
        "name": "COSMOS 2251 DEB",
        "group": "cosmos-2251-debris",
        "lat": -34.3441255039395,
        "lon": 131.09527334428032,
        "alt_km": 673.7016390991021,
        "timestamp": "2025-12-27T08:36:18.777120+00:00",
        "meta_object_name": "COSMOS 2251 DEB",
        "meta_object_id": "1993-036U",
        "meta_epoch": "2025-12-26T20:15:07.854624",
        "meta_mean_motion": 14.70841051,
        "meta_eccentricity": 0.00156744,
        "meta_inclination": 74.045,
        "meta_ra_of_asc_node": 143.3662,
        "meta_arg_of_pericenter": 175.823,
        "meta_mean_anomaly": 303.9689,
        "meta_ephemeris_type": 0,
        "meta_classification_type": "U",
        "meta_norad_cat_id": 33779,
        "meta_element_set_no": 999,
        "meta_rev_at_epoch": 88735,
        "meta_bstar": 0.0029682163,
        "meta_mean_motion_dot": 0.00018198,
        "meta_mean_motion_ddot": 0,
        "tle_line1": "1 33779U 93036U   25360.84384091  .00018198  00000+0  29682-2 0  9998",
        "tle_line2": "2 33779  74.0450 143.3662 0015674 175.8230 303.9689 14.70841051887355"
      },
      "geometry": {
        "type": "Point",
        "coordinates": [
          131.09527334428032,
          -34.3441255039395
        ]
      }
    },
    {
      "type": "Feature",
      "properties": {
        "norad_id": 33782,
        "name": "COSMOS 2251 DEB",
        "group": "cosmos-2251-debris",
        "lat": -57.60037450811114,
        "lon": -136.30800855129655,
        "alt_km": 749.0087154022731,
        "timestamp": "2025-12-27T08:36:18.777130+00:00",
        "meta_object_name": "COSMOS 2251 DEB",
        "meta_object_id": "1993-036X",
        "meta_epoch": "2025-12-27T02:55:24.142080",
        "meta_mean_motion": 14.40483149,
        "meta_eccentricity": 0.0021198,
        "meta_inclination": 74.0325,
        "meta_ra_of_asc_node": 250.9485,
        "meta_arg_of_pericenter": 313.8789,
        "meta_mean_anomaly": 197.6156,
        "meta_ephemeris_type": 0,
        "meta_classification_type": "U",
        "meta_norad_cat_id": 33782,
        "meta_element_set_no": 999,
        "meta_rev_at_epoch": 88333,
        "meta_bstar": 0.00040039,
        "meta_mean_motion_dot": 1.25e-05,
        "meta_mean_motion_ddot": 0,
        "tle_line1": "1 33782U 93036X   25361.12180720  .00001250  00000+0  40039-3 0  9998",
        "tle_line2": "2 33782  74.0325 250.9485 0021198 313.8789 197.6156 14.40483149883337"
      },
      "geometry": {
        "type": "Point",
        "coordinates": [
          -136.30800855129655,
          -57.60037450811114
        ]
      }
    },
    {
      "type": "Feature",
      "properties": {
        "norad_id": 33785,
        "name": "COSMOS 2251 DEB",
        "group": "cosmos-2251-debris",
        "lat": -57.92056624926275,
        "lon": 3.7578015521080803,
        "alt_km": 650.9582462375656,
        "timestamp": "2025-12-27T08:36:18.777141+00:00",
        "meta_object_name": "COSMOS 2251 DEB",
        "meta_object_id": "1993-036AA",
        "meta_epoch": "2025-12-27T04:17:05.139744",
        "meta_mean_motion": 14.70810802,
        "meta_eccentricity": 0.00234,
        "meta_inclination": 73.867,
        "meta_ra_of_asc_node": 31.6137,
        "meta_arg_of_pericenter": 328.7258,
        "meta_mean_anomaly": 96.7763,
        "meta_ephemeris_type": 0,
        "meta_classification_type": "U",
        "meta_norad_cat_id": 33785,
        "meta_element_set_no": 999,
        "meta_rev_at_epoch": 88719,
        "meta_bstar": 0.0023268,
        "meta_mean_motion_dot": 0.00014272,
        "meta_mean_motion_ddot": 0,
        "tle_line1": "1 33785U 93036AA  25361.17853171  .00014272  00000+0  23268-2 0  9995",
        "tle_line2": "2 33785  73.8670  31.6137 0023400 328.7258  96.7763 14.70810802887196"
      },
      "geometry": {
        "type": "Point",
        "coordinates": [
          3.7578015521080803,
          -57.92056624926275
        ]
      }
    },
    {
      "type": "Feature",
      "properties": {
        "norad_id": 33789,
        "name": "COSMOS 2251 DEB",
        "group": "cosmos-2251-debris",
        "lat": 46.35553030981595,
        "lon": -134.8353277622431,
        "alt_km": 800.1332265815863,
        "timestamp": "2025-12-27T08:36:18.777152+00:00",
        "meta_object_name": "COSMOS 2251 DEB",
        "meta_object_id": "1993-036AE",
        "meta_epoch": "2025-12-27T04:48:04.305312",
        "meta_mean_motion": 13.88827446,
        "meta_eccentricity": 0.0239417,
        "meta_inclination": 74.0642,
        "meta_ra_of_asc_node": 62.8647,
        "meta_arg_of_pericenter": 175.2943,
        "meta_mean_anomaly": 245.5347,
        "meta_ephemeris_type": 0,
        "meta_classification_type": "U",
        "meta_norad_cat_id": 33789,
        "meta_element_set_no": 999,
        "meta_rev_at_epoch": 85296,
        "meta_bstar": 0.00068639,
        "meta_mean_motion_dot": 1.02e-05,
        "meta_mean_motion_ddot": 0,
        "tle_line1": "1 33789U 93036AE  25361.20004983  .00001020  00000+0  68639-3 0  9991",
        "tle_line2": "2 33789  74.0642  62.8647 0239417 175.2943 245.5347 13.88827446852966"
      },
      "geometry": {
        "type": "Point",
        "coordinates": [
          -134.8353277622431,
          46.35553030981595
        ]
      }
    }
  ]
}